start=new Date('2022-07-10T00:00:00.000Z').valueOf();
sats=[{"MEAN_MOTION_DOT":"-0.00001840","CLASSIFICATION_TYPE":"U","LAUNCH_DATE":"2020-10-06","SEMIMAJOR_AXIS":"6925.345","BSTAR":"-0.00010465000000","DECAY_DATE":null,"RA_OF_ASC_NODE":"52.6979","REF_FRAME":"TEME","APOAPSIS":"548.336","PERIAPSIS":"546.084","CENTER_NAME":"EARTH","REV_AT_EPOCH":"9789","ARG_OF_PERICENTER":"64.2188","GP_ID":"207781864","EPOCH":"2022-07-09T16:03:26.218080","INCLINATION":"53.0553","TLE_LINE2":"2 46573  53.0553  52.6979 0001626  64.2188 295.8969 15.06401118 97898","PERIOD":"95.592","EPHEMERIS_TYPE":"0","ECCENTRICITY":"0.00016260","MEAN_ELEMENT_THEORY":"SGP4","TIME_SYSTEM":"UTC","OBJECT_TYPE":"PAYLOAD","OBJECT_NAME":"STARLINK-1650","SITE":"AFETR","OBJECT_ID":"2020-070AT","ELEMENT_SET_NO":"999","NORAD_CAT_ID":"46573","MEAN_ANOMALY":"295.8969","FILE":"3510681","COUNTRY_CODE":"US","MEAN_MOTION":"15.06401118","RCS_SIZE":"LARGE","MEAN_MOTION_DDOT":"0.0000000000000","TLE_LINE1":"1 46573U 20070AT  22190.66905345 -.00001840  00000-0 -10465-3 0  9990"},{"ELEMENT_SET_NO":"999","NORAD_CAT_ID":"46574","COUNTRY_CODE":"US","MEAN_MOTION":"15.06394311","FILE":"3510681","MEAN_ANOMALY":"279.6786","TLE_LINE1":"1 46574U 20070AU  22190.72160864 -.00001239  00000-0 -64340-4 0  9991","MEAN_MOTION_DDOT":"0.0000000000000","RCS_SIZE":"LARGE","ECCENTRICITY":"0.00014100","MEAN_ELEMENT_THEORY":"SGP4","OBJECT_NAME":"STARLINK-1660","OBJECT_TYPE":"PAYLOAD","TIME_SYSTEM":"UTC","OBJECT_ID":"2020-070AU","SITE":"AFETR","REF_FRAME":"TEME","APOAPSIS":"548.207","REV_AT_EPOCH":"9790","CENTER_NAME":"EARTH","PERIAPSIS":"546.255","GP_ID":"207782616","ARG_OF_PERICENTER":"80.4362","PERIOD":"95.593","EPHEMERIS_TYPE":"0","INCLINATION":"53.0563","TLE_LINE2":"2 46574  53.0563  52.4874 0001410  80.4362 279.6786 15.06394311 97902","EPOCH":"2022-07-09T17:19:06.986496","CLASSIFICATION_TYPE":"U","MEAN_MOTION_DOT":"-0.00001239","LAUNCH_DATE":"2020-10-06","SEMIMAJOR_AXIS":"6925.366","DECAY_DATE":null,"BSTAR":"-0.00006434000000","RA_OF_ASC_NODE":"52.4874"},{"BSTAR":"-0.00018946000000","DECAY_DATE":null,"RA_OF_ASC_NODE":"27.5367","MEAN_MOTION_DOT":"-0.00003102","CLASSIFICATION_TYPE":"U","LAUNCH_DATE":"2020-10-06","SEMIMAJOR_AXIS":"6925.357","ARG_OF_PERICENTER":"53.6120","GP_ID":"207782615","TLE_LINE2":"2 46575  53.0557  27.5367 0000987  53.6120 306.4959 15.06397273 98247","INCLINATION":"53.0557","EPOCH":"2022-07-09T17:03:50.569344","EPHEMERIS_TYPE":"0","PERIOD":"95.592","REF_FRAME":"TEME","APOAPSIS":"547.905","PERIAPSIS":"546.538","REV_AT_EPOCH":"9824","CENTER_NAME":"EARTH","OBJECT_TYPE":"PAYLOAD","TIME_SYSTEM":"UTC","OBJECT_NAME":"STARLINK-1675","SITE":"AFETR","OBJECT_ID":"2020-070AV","ECCENTRICITY":"0.00009870","MEAN_ELEMENT_THEORY":"SGP4","FILE":"3510681","MEAN_ANOMALY":"306.4959","MEAN_MOTION":"15.06397273","COUNTRY_CODE":"US","MEAN_MOTION_DDOT":"0.0000000000000","RCS_SIZE":"LARGE","TLE_LINE1":"1 46575U 20070AV  22190.71100196 -.00003102  00000-0 -18946-3 0  9994","ELEMENT_SET_NO":"999","NORAD_CAT_ID":"46575"},{"MEAN_MOTION":"15.06394989","COUNTRY_CODE":"US","FILE":"3510681","MEAN_ANOMALY":"301.3635","TLE_LINE1":"1 46576U 20070AW  22190.71422587 -.00006820  00000-0 -43947-3 0  9995","MEAN_MOTION_DDOT":"0.0000000000000","RCS_SIZE":"LARGE","ELEMENT_SET_NO":"999","NORAD_CAT_ID":"46576","OBJECT_NAME":"STARLINK-1677","OBJECT_TYPE":"PAYLOAD","TIME_SYSTEM":"UTC","SITE":"AFETR","OBJECT_ID":"2020-070AW","ECCENTRICITY":"0.00014520","MEAN_ELEMENT_THEORY":"SGP4","GP_ID":"207781614","ARG_OF_PERICENTER":"58.7496","EPHEMERIS_TYPE":"0","PERIOD":"95.592","INCLINATION":"53.0551","TLE_LINE2":"2 46576  53.0551  52.5073 0001452  58.7496 301.3635 15.06394989 97902","EPOCH":"2022-07-09T17:08:29.115168","REF_FRAME":"TEME","APOAPSIS":"548.234","REV_AT_EPOCH":"9790","CENTER_NAME":"EARTH","PERIAPSIS":"546.223","DECAY_DATE":null,"BSTAR":"-0.00043947000000","RA_OF_ASC_NODE":"52.5073","CLASSIFICATION_TYPE":"U","MEAN_MOTION_DOT":"-0.00006820","LAUNCH_DATE":"2020-10-06","SEMIMAJOR_AXIS":"6925.364"},{"ARG_OF_PERICENTER":"72.5373","GP_ID":"207782364","INCLINATION":"53.0536","TLE_LINE2":"2 46577  53.0536  52.9780 0001451  72.5373 287.5775 15.06404449 97882","EPOCH":"2022-07-09T14:39:52.012224","EPHEMERIS_TYPE":"0","PERIOD":"95.592","REF_FRAME":"TEME","APOAPSIS":"548.205","PERIAPSIS":"546.195","REV_AT_EPOCH":"9788","CENTER_NAME":"EARTH","BSTAR":"0.00002890100000","DECAY_DATE":null,"RA_OF_ASC_NODE":"52.9780","MEAN_MOTION_DOT":"0.00000149","CLASSIFICATION_TYPE":"U","SEMIMAJOR_AXIS":"6925.335","LAUNCH_DATE":"2020-10-06","FILE":"3510681","MEAN_ANOMALY":"287.5775","COUNTRY_CODE":"US","MEAN_MOTION":"15.06404449","MEAN_MOTION_DDOT":"0.0000000000000","RCS_SIZE":"LARGE","TLE_LINE1":"1 46577U 20070AX  22190.61101866  .00000149  00000-0  28901-4 0  9999","ELEMENT_SET_NO":"999","NORAD_CAT_ID":"46577","OBJECT_TYPE":"PAYLOAD","TIME_SYSTEM":"UTC","OBJECT_NAME":"STARLINK-1682","OBJECT_ID":"2020-070AX","SITE":"AFETR","ECCENTRICITY":"0.00014510","MEAN_ELEMENT_THEORY":"SGP4"},{"REF_FRAME":"TEME","APOAPSIS":"548.222","CENTER_NAME":"EARTH","REV_AT_EPOCH":"9810","PERIAPSIS":"546.164","GP_ID":"207783869","ARG_OF_PERICENTER":"80.7146","EPHEMERIS_TYPE":"0","PERIOD":"95.592","EPOCH":"2022-07-09T15:48:12.769632","TLE_LINE2":"2 46578  53.0553  37.8178 0001486  80.7146 279.4011 15.06406587 98106","INCLINATION":"53.0553","CLASSIFICATION_TYPE":"U","MEAN_MOTION_DOT":"0.00001404","SEMIMAJOR_AXIS":"6925.328","LAUNCH_DATE":"2020-10-06","DECAY_DATE":null,"BSTAR":"0.00011309000000","RA_OF_ASC_NODE":"37.8178","ELEMENT_SET_NO":"999","NORAD_CAT_ID":"46578","MEAN_MOTION":"15.06406587","COUNTRY_CODE":"US","MEAN_ANOMALY":"279.4011","FILE":"3510681","TLE_LINE1":"1 46578U 20070AY  22190.65848113  .00001404  00000-0  11309-3 0  9995","RCS_SIZE":"LARGE","MEAN_MOTION_DDOT":"0.0000000000000","ECCENTRICITY":"0.00014860","MEAN_ELEMENT_THEORY":"SGP4","OBJECT_NAME":"STARLINK-1683","TIME_SYSTEM":"UTC","OBJECT_TYPE":"PAYLOAD","OBJECT_ID":"2020-070AY","SITE":"AFETR"},{"FILE":"3510681","MEAN_ANOMALY":"274.9180","COUNTRY_CODE":"US","MEAN_MOTION":"15.06395409","MEAN_MOTION_DDOT":"0.0000000000000","RCS_SIZE":"LARGE","TLE_LINE1":"1 46579U 20070AZ  22190.72896930 -.00010589  00000-0 -69314-3 0  9999","ELEMENT_SET_NO":"999","NORAD_CAT_ID":"46579","OBJECT_TYPE":"PAYLOAD","TIME_SYSTEM":"UTC","OBJECT_NAME":"STARLINK-1705","SITE":"AFETR","OBJECT_ID":"2020-070AZ","ECCENTRICITY":"0.00012140","MEAN_ELEMENT_THEORY":"SGP4","ARG_OF_PERICENTER":"85.1947","GP_ID":"207782617","TLE_LINE2":"2 46579  53.0549  52.4471 0001214  85.1947 274.9180 15.06395409 97902","INCLINATION":"53.0549","EPOCH":"2022-07-09T17:29:42.947520","EPHEMERIS_TYPE":"0","PERIOD":"95.592","REF_FRAME":"TEME","APOAPSIS":"548.068","PERIAPSIS":"546.387","REV_AT_EPOCH":"9790","CENTER_NAME":"EARTH","BSTAR":"-0.00069314000000","DECAY_DATE":null,"RA_OF_ASC_NODE":"52.4471","MEAN_MOTION_DOT":"-0.00010589","CLASSIFICATION_TYPE":"U","LAUNCH_DATE":"2020-10-06","SEMIMAJOR_AXIS":"6925.363"},{"RA_OF_ASC_NODE":"52.5434","BSTAR":"-0.00013226000000","DECAY_DATE":null,"LAUNCH_DATE":"2020-10-06","SEMIMAJOR_AXIS":"6925.335","MEAN_MOTION_DOT":"-0.00002251","CLASSIFICATION_TYPE":"U","EPOCH":"2022-07-09T16:57:52.015392","INCLINATION":"53.0559","TLE_LINE2":"2 46580  53.0559  52.5434 0001572  77.7624 282.3541 15.06404469 97902","PERIOD":"95.592","EPHEMERIS_TYPE":"0","ARG_OF_PERICENTER":"77.7624","GP_ID":"207782867","PERIAPSIS":"546.111","CENTER_NAME":"EARTH","REV_AT_EPOCH":"9790","APOAPSIS":"548.289","REF_FRAME":"TEME","SITE":"AFETR","OBJECT_ID":"2020-070BA","TIME_SYSTEM":"UTC","OBJECT_TYPE":"PAYLOAD","OBJECT_NAME":"STARLINK-1708","MEAN_ELEMENT_THEORY":"SGP4","ECCENTRICITY":"0.00015720","RCS_SIZE":"LARGE","MEAN_MOTION_DDOT":"0.0000000000000","TLE_LINE1":"1 46580U 20070BA  22190.70685203 -.00002251  00000-0 -13226-3 0  9996","MEAN_ANOMALY":"282.3541","FILE":"3510681","MEAN_MOTION":"15.06404469","COUNTRY_CODE":"US","NORAD_CAT_ID":"46580","ELEMENT_SET_NO":"999"},{"SEMIMAJOR_AXIS":"6925.395","LAUNCH_DATE":"2020-10-06","MEAN_MOTION_DOT":"-0.00003861","CLASSIFICATION_TYPE":"U","RA_OF_ASC_NODE":"47.4207","BSTAR":"-0.00024054000000","DECAY_DATE":null,"PERIAPSIS":"546.128","CENTER_NAME":"EARTH","REV_AT_EPOCH":"9797","APOAPSIS":"548.393","REF_FRAME":"TEME","EPOCH":"2022-07-09T17:43:40.840032","TLE_LINE2":"2 46581  53.0550  47.4207 0001635  74.7225 285.3945 15.06384761 97979","INCLINATION":"53.0550","PERIOD":"95.593","EPHEMERIS_TYPE":"0","ARG_OF_PERICENTER":"74.7225","GP_ID":"207783617","MEAN_ELEMENT_THEORY":"SGP4","ECCENTRICITY":"0.00016350","OBJECT_ID":"2020-070BB","SITE":"AFETR","TIME_SYSTEM":"UTC","OBJECT_TYPE":"PAYLOAD","OBJECT_NAME":"STARLINK-1712","NORAD_CAT_ID":"46581","ELEMENT_SET_NO":"999","RCS_SIZE":"LARGE","MEAN_MOTION_DDOT":"0.0000000000000","TLE_LINE1":"1 46581U 20070BB  22190.73866713 -.00003861  00000-0 -24054-3 0  9996","MEAN_ANOMALY":"285.3945","FILE":"3510681","COUNTRY_CODE":"US","MEAN_MOTION":"15.06384761"},{"MEAN_ELEMENT_THEORY":"SGP4","ECCENTRICITY":"0.00014820","OBJECT_ID":"2020-070BC","SITE":"AFETR","OBJECT_NAME":"STARLINK-1728","OBJECT_TYPE":"PAYLOAD","TIME_SYSTEM":"UTC","NORAD_CAT_ID":"46582","ELEMENT_SET_NO":"999","TLE_LINE1":"1 46582U 20070BC  22190.72392532 -.00000855  00000-0 -38527-4 0  9990","MEAN_MOTION_DDOT":"0.0000000000000","RCS_SIZE":"LARGE","COUNTRY_CODE":"US","MEAN_MOTION":"15.06393500","FILE":"3510681","MEAN_ANOMALY":"274.4643","SEMIMAJOR_AXIS":"6925.368","LAUNCH_DATE":"2020-10-06","CLASSIFICATION_TYPE":"U","MEAN_MOTION_DOT":"-0.00000855","RA_OF_ASC_NODE":"47.4813","DECAY_DATE":null,"BSTAR":"-0.00003852700000","REV_AT_EPOCH":"9797","CENTER_NAME":"EARTH","PERIAPSIS":"546.207","REF_FRAME":"TEME","APOAPSIS":"548.260","PERIOD":"95.593","EPHEMERIS_TYPE":"0","INCLINATION":"53.0570","TLE_LINE2":"2 46582  53.0570  47.4813 0001482  85.6515 274.4643 15.06393500 97973","EPOCH":"2022-07-09T17:22:27.147648","GP_ID":"207784369","ARG_OF_PERICENTER":"85.6515"}];
